[{"OBJECT_NAME":"OBJECT V","OBJECT_ID":"2023-085V","EPOCH":"2026-03-09T21:44:00.165408","MEAN_MOTION":15.30745852,"ECCENTRICITY":0.00069081,"INCLINATION":97.4843,"RA_OF_ASC_NODE":179.3833,"ARG_OF_PERICENTER":71.0503,"MEAN_ANOMALY":289.1485,"EPHEMERIS_TYPE":0,"CLASSIFICATION_TYPE":"U","NORAD_CAT_ID":57023,"ELEMENT_SET_NO":999,"REV_AT_EPOCH":15149,"BSTAR":0.00067780507,"MEAN_MOTION_DOT":0.00020109,"MEAN_MOTION_DDOT":0},{"OBJECT_NAME":"STARLINK-30795","OBJECT_ID":"2023-162A","EPOCH":"2026-03-09T22:00:01.999584","MEAN_MOTION":15.26752107,"ECCENTRICITY":0.00012389,"INCLINATION":42.9999,"RA_OF_ASC_NODE":130.7306,"ARG_OF_PERICENTER":244.8667,"MEAN_ANOMALY":252.8095,"EPHEMERIS_TYPE":0,"CLASSIFICATION_TYPE":"U","NORAD_CAT_ID":58118,"ELEMENT_SET_NO":999,"REV_AT_EPOCH":567,"BSTAR":7.5123484e-5,"MEAN_MOTION_DOT":1.757e-5,"MEAN_MOTION_DDOT":0}]
